QIANFAN-60              
1 62790U 25016F   25298.48999500  .00000049  00000+0  56625-4 0  9998
2 62790  88.9722 108.0687 0017277 120.1200 240.1666 13.50972127 40716
QIANFAN-61              
1 62791U 25016G   25298.44868475  .00000055  00000+0  65943-4 0  9991
2 62791  88.9790 108.2031 0016223 119.4912 240.7860 13.50975738 40722
QIANFAN-62              
1 62792U 25016H   25298.45297427  .00000053  00000+0  63183-4 0  9998
2 62792  88.9736 108.0972 0017589 120.0624 240.2274 13.50969646 40713
QIANFAN-63              
1 62793U 25016J   25298.47754124  .00000061  00000+0  75121-4 0  9997
2 62793  88.9743 108.0429 0017572 124.9170 235.3635 13.50972648 40756
QIANFAN-64              
1 62794U 25016K   25298.51866480  .00000058  00000+0  70538-4 0  9995
2 62794  88.9730 108.0193 0015621 117.9865 242.2869 13.50974328 40750
QIANFAN-65              
1 62795U 25016L   25298.51458109  .00000060  00000+0  74127-4 0  9992
2 62795  88.9726 108.0474 0015422 119.5469 240.7222 13.50973291 40737
QIANFAN-66              
1 62796U 25016M   25298.54345551  .00000059  00000+0  71676-4 0  9996
2 62796  88.9745 108.0052 0016594 115.6811 244.6056 13.50977351 40784
QIANFAN-67              
1 62797U 25016N   25298.54750514  .00000065  00000+0  82174-4 0  9998
2 62797  88.9736 108.0350 0016485 121.9269 238.3488 13.50970134 40750
QIANFAN-68              
1 62798U 25016P   25298.53928473  .00000067  00000+0  85035-4 0  9990
2 62798  88.9739 108.0792 0016560 120.3690 239.9101 13.50972446 40734
QIANFAN-69              
1 62799U 25016Q   25298.48173241  .00000060  00000+0  74383-4 0  9997
2 62799  88.9718 107.9651 0017292 121.6274 238.6567 13.50969861 40761
QIANFAN-70              
1 62800U 25016R   25298.49803348  .00000071  00000+0  91149-4 0  9990
2 62800  88.9739 108.0916 0017006 112.7089 247.5862 13.50972463 40726
QIANFAN-71              
1 62801U 25016S   25298.49400854  .00000061  00000+0  75189-4 0  9991
2 62801  88.9733 108.0745 0017151 124.7779 235.4989 13.50973561 40727
QIANFAN-72              
1 62802U 25016T   25298.51047527  .00000066  00000+0  82611-4 0  9992
2 62802  88.9723 108.0909 0020279 131.9931 228.2951 13.50973272 40711
QIANFAN-73              
1 63159U 25046A   25298.46325045  .00000048  00000+0  55235-4 0  9991
2 63159  88.9774 325.0236 0012987 262.1136  97.8541 13.50971847 40898
QIANFAN-74              
1 63160U 25046B   25298.52084087  .00000041  00000+0  44898-4 0  9994
2 63160  88.9774 324.9060 0002116  96.1095 264.0298 13.50973729 40961
QIANFAN-75              
1 63161U 25046C   25298.43430418  .00000124  00000+0  17320-3 0  9999
2 63161  88.9776 325.1479 0014090 265.7151  94.2390 13.50982390 40827
QIANFAN-76              
1 63162U 25046D   25298.50438889 -.00000072  00000+0 -13061-3 0  9990
2 63162  88.9775 325.1213 0011701 266.1373  93.8440 13.50972355 40843
QIANFAN-77              
1 63163U 25046E   25298.52099660  .00000154  00000+0  10271-3 0  9992
2 63163  88.9773 323.5227 0013225 224.8736 135.1372 13.96076578 41720
QIANFAN-78              
1 63164U 25046F   25298.47148993  .00000032  00000+0  30554-4 0  9993
2 63164  88.9774 324.9894 0013018 268.8360  91.1299 13.50974092 40915
QIANFAN-79              
1 63165U 25046G   25298.50017568  .00000055  00000+0  66837-4 0  9999
2 63165  88.9778 325.0922 0012719 266.7306  93.2390 13.50973553 40868
QIANFAN-80              
1 63166U 25046H   25298.44267704  .00000089  00000+0  11948-3 0  9991
2 63166  88.9775 324.8061 0011672 272.0419  87.9396 13.50974672 41016
QIANFAN-81              
1 63167U 25046J   25298.49581169  .00000120  00000+0  16673-3 0  9997
2 63167  88.9775 324.8689 0012747 258.3335 101.6385 13.50989752 40972
QIANFAN-82              
1 63168U 25046K   25298.52910028  .00000069  00000+0  88996-4 0  9992
2 63168  88.9775 324.9092 0010837 267.2575  92.7336 13.50971648 40965
QIANFAN-83              
1 63169U 25046L   25298.50432625  .00000061  00000+0  63260-4 0  9992
2 63169  88.9776 324.7828 0012166 253.2695 106.7128 13.61966078 41034
QIANFAN-84              
1 63170U 25046M   25298.48325894 -.00000010  00000+0 -33154-4 0  9995
2 63170  88.9774 325.0465 0013881 263.6041  96.3529 13.50987755 40884
QIANFAN-85              
1 63171U 25046N   25298.47970681  .00000116  00000+0  16073-3 0  9990
2 63171  88.9774 324.9190 0011190 266.1677  93.8194 13.50974966 40950
QIANFAN-86              
1 63172U 25046P   25298.48797593  .00000229  00000+0  33699-3 0  9999
2 63172  88.9777 324.7791 0009063 271.2565  88.7547 13.50972759 41031
QIANFAN-87              
1 63173U 25046Q   25298.45914801  .00000016  00000+0  67786-5 0  9990
2 63173  88.9773 324.8957 0009726 265.3772  94.6268 13.50969304 40962
QIANFAN-88              
1 63174U 25046R   25298.47563024  .00000094  00000+0  12714-3 0  9995
2 63174  88.9775 324.8473 0010121 274.9232  85.0763 13.50970813 40990
QIANFAN-89              
1 63175U 25046S   25298.43842424  .00000116  00000+0  16122-3 0  9998
2 63175  88.9776 325.0402 0014485 264.2024  95.7476 13.50972974 40882
QIANFAN-90              
1 63176U 25046T   25298.46715009  .00000017  00000+0  72996-5 0  9993
2 63176  88.9776 325.0096 0011440 261.6367  98.3487 13.50973924 40901
